EOSSAT-1                
1 55053U 23001AW  26068.73619225  .00007695  00000+0  24844-3 0  9992
2 55053  97.3357 130.2294 0011263 110.3168 249.9285 15.32339828176689
STARLINK-35395          
1 66014U 25232K   26068.47225546  .00032995  00000+0  11212-2 0  9994
2 66014  53.1590 104.8238 0001358  82.1646 277.9509 15.30200354 23403
